[{"OBJECT_NAME":"STARLINK-31902","OBJECT_ID":"2024-084N","EPOCH":"2026-03-09T23:22:09.725952","MEAN_MOTION":15.27577381,"ECCENTRICITY":0.00011725,"INCLINATION":43.0054,"RA_OF_ASC_NODE":40.4457,"ARG_OF_PERICENTER":254.2353,"MEAN_ANOMALY":105.8369,"EPHEMERIS_TYPE":0,"CLASSIFICATION_TYPE":"U","NORAD_CAT_ID":59666,"ELEMENT_SET_NO":999,"REV_AT_EPOCH":10441,"BSTAR":-8.5764285e-5,"MEAN_MOTION_DOT":-2.621e-5,"MEAN_MOTION_DDOT":0},{"OBJECT_NAME":"PHISAT 2","OBJECT_ID":"2024-149C","EPOCH":"2026-03-09T18:55:12.732384","MEAN_MOTION":15.29548632,"ECCENTRICITY":0.00011753,"INCLINATION":97.3806,"RA_OF_ASC_NODE":148.6498,"ARG_OF_PERICENTER":168.623,"MEAN_ANOMALY":191.5037,"EPHEMERIS_TYPE":0,"CLASSIFICATION_TYPE":"U","NORAD_CAT_ID":60470,"ELEMENT_SET_NO":999,"REV_AT_EPOCH":8679,"BSTAR":0.00031420974,"MEAN_MOTION_DOT":8.925e-5,"MEAN_MOTION_DDOT":0}]
